start=new Date('2022-12-12T00:00:00.000Z').valueOf();
sats=[{"MEAN_ANOMALY":"308.6280","ARG_OF_PERICENTER":"51.5145","REV_AT_EPOCH":"1558","RCS_SIZE":"LARGE","COUNTRY_CODE":"US","PERIOD":"95.919","NORAD_CAT_ID":"53657","MEAN_MOTION_DOT":"0.00000426","RA_OF_ASC_NODE":"224.3861","MEAN_ELEMENT_THEORY":"SGP4","FILE":"3691993","DECAY_DATE":null,"SEMIMAJOR_AXIS":"6941.120","CLASSIFICATION_TYPE":"U","OBJECT_TYPE":"PAYLOAD","LAUNCH_DATE":"2022-08-31","MEAN_MOTION_DDOT":"0.0000000000000","EPOCH":"2022-12-11T14:54:24.335136","BSTAR":"0.00003772600000","GP_ID":"220100351","CENTER_NAME":"EARTH","REF_FRAME":"TEME","INCLINATION":"97.6576","OBJECT_NAME":"STARLINK-4469","ECCENTRICITY":"0.00022420","PERIAPSIS":"561.429","MEAN_MOTION":"15.01268633","APOAPSIS":"564.541","ELEMENT_SET_NO":"999","EPHEMERIS_TYPE":"0","SITE":"AFWTR","TLE_LINE2":"2 53657  97.6576 224.3861 0002242  51.5145 308.6280 15.01268633 15586","OBJECT_ID":"2022-105K","TIME_SYSTEM":"UTC","TLE_LINE1":"1 53657U 22105K   22345.62111499  .00000426  00000-0  37726-4 0  9996"},{"EPHEMERIS_TYPE":"0","ELEMENT_SET_NO":"999","APOAPSIS":"564.653","MEAN_MOTION":"15.01259910","TLE_LINE2":"2 53658  97.6574 224.4494 0002364  71.2577 288.8904 15.01259910 15592","SITE":"AFWTR","TLE_LINE1":"1 53658U 22105L   22345.68223089  .00002853  00000-0  22666-3 0  9994","TIME_SYSTEM":"UTC","OBJECT_ID":"2022-105L","CENTER_NAME":"EARTH","INCLINATION":"97.6574","REF_FRAME":"TEME","OBJECT_NAME":"STARLINK-4452","ECCENTRICITY":"0.00023640","PERIAPSIS":"561.371","DECAY_DATE":null,"FILE":"3691993","MEAN_ELEMENT_THEORY":"SGP4","OBJECT_TYPE":"PAYLOAD","SEMIMAJOR_AXIS":"6941.147","CLASSIFICATION_TYPE":"U","GP_ID":"220101101","LAUNCH_DATE":"2022-08-31","MEAN_MOTION_DDOT":"0.0000000000000","BSTAR":"0.00022666000000","EPOCH":"2022-12-11T16:22:24.748896","MEAN_ANOMALY":"288.8904","RCS_SIZE":"LARGE","REV_AT_EPOCH":"1559","ARG_OF_PERICENTER":"71.2577","MEAN_MOTION_DOT":"0.00002853","NORAD_CAT_ID":"53658","PERIOD":"95.919","COUNTRY_CODE":"US","RA_OF_ASC_NODE":"224.4494"},{"TLE_LINE2":"2 53659  97.6583 224.4500 0002243  71.3630 288.7838 15.01261073 15596","SITE":"AFWTR","MEAN_MOTION":"15.01261073","ELEMENT_SET_NO":"999","APOAPSIS":"564.565","EPHEMERIS_TYPE":"0","OBJECT_ID":"2022-105M","TIME_SYSTEM":"UTC","TLE_LINE1":"1 53659U 22105M   22345.68407625  .00001466  00000-0  11871-3 0  9990","REF_FRAME":"TEME","INCLINATION":"97.6583","CENTER_NAME":"EARTH","PERIAPSIS":"561.452","ECCENTRICITY":"0.00022430","OBJECT_NAME":"STARLINK-4463","SEMIMAJOR_AXIS":"6941.144","CLASSIFICATION_TYPE":"U","OBJECT_TYPE":"PAYLOAD","MEAN_ELEMENT_THEORY":"SGP4","FILE":"3691993","DECAY_DATE":null,"EPOCH":"2022-12-11T16:25:04.188000","LAUNCH_DATE":"2022-08-31","MEAN_MOTION_DDOT":"0.0000000000000","BSTAR":"0.00011871000000","GP_ID":"220099849","ARG_OF_PERICENTER":"71.3630","REV_AT_EPOCH":"1559","RCS_SIZE":"LARGE","MEAN_ANOMALY":"288.7838","RA_OF_ASC_NODE":"224.4500","PERIOD":"95.919","COUNTRY_CODE":"US","MEAN_MOTION_DOT":"0.00001466","NORAD_CAT_ID":"53659"},{"CENTER_NAME":"EARTH","INCLINATION":"97.6551","REF_FRAME":"TEME","OBJECT_NAME":"STARLINK-4473","PERIAPSIS":"561.346","ECCENTRICITY":"0.00023760","EPHEMERIS_TYPE":"0","ELEMENT_SET_NO":"999","APOAPSIS":"564.644","MEAN_MOTION":"15.01265514","TLE_LINE2":"2 53660  97.6551 224.5109 0002376  61.2099 298.9363 15.01265514 15605","SITE":"AFWTR","TLE_LINE1":"1 53660U 22105N   22345.74332361  .00001790  00000-0  14390-3 0  9992","TIME_SYSTEM":"UTC","OBJECT_ID":"2022-105N","MEAN_ANOMALY":"298.9363","RCS_SIZE":"LARGE","REV_AT_EPOCH":"1560","ARG_OF_PERICENTER":"61.2099","MEAN_MOTION_DOT":"0.00001790","NORAD_CAT_ID":"53660","COUNTRY_CODE":"US","PERIOD":"95.919","RA_OF_ASC_NODE":"224.5109","DECAY_DATE":null,"FILE":"3691993","MEAN_ELEMENT_THEORY":"SGP4","OBJECT_TYPE":"PAYLOAD","CLASSIFICATION_TYPE":"U","SEMIMAJOR_AXIS":"6941.130","GP_ID":"220099600","BSTAR":"0.00014390000000","LAUNCH_DATE":"2022-08-31","MEAN_MOTION_DDOT":"0.0000000000000","EPOCH":"2022-12-11T17:50:23.159904"},{"RCS_SIZE":"LARGE","ARG_OF_PERICENTER":"55.5092","REV_AT_EPOCH":"1559","MEAN_ANOMALY":"304.6381","RA_OF_ASC_NODE":"224.4512","MEAN_MOTION_DOT":"0.00005455","NORAD_CAT_ID":"53661","COUNTRY_CODE":"US","PERIOD":"95.918","OBJECT_TYPE":"PAYLOAD","CLASSIFICATION_TYPE":"U","SEMIMAJOR_AXIS":"6941.099","DECAY_DATE":null,"FILE":"3691993","MEAN_ELEMENT_THEORY":"SGP4","GP_ID":"220100851","LAUNCH_DATE":"2022-08-31","MEAN_MOTION_DDOT":"0.0000000000000","BSTAR":"0.00042877000000","EPOCH":"2022-12-11T16:19:44.492448","INCLINATION":"97.6555","REF_FRAME":"TEME","CENTER_NAME":"EARTH","ECCENTRICITY":"0.00026390","PERIAPSIS":"561.132","OBJECT_NAME":"STARLINK-4472","TLE_LINE2":"2 53661  97.6555 224.4512 0002639  55.5092 304.6381 15.01275674 15599","SITE":"AFWTR","EPHEMERIS_TYPE":"0","ELEMENT_SET_NO":"999","APOAPSIS":"564.795","MEAN_MOTION":"15.01275674","TLE_LINE1":"1 53661U 22105P   22345.68037607  .00005455  00000-0  42877-3 0  9994","TIME_SYSTEM":"UTC","OBJECT_ID":"2022-105P"},{"OBJECT_TYPE":"PAYLOAD","SEMIMAJOR_AXIS":"6941.069","CLASSIFICATION_TYPE":"U","DECAY_DATE":null,"FILE":"3691993","MEAN_ELEMENT_THEORY":"SGP4","GP_ID":"220100602","BSTAR":"0.00108240000000","LAUNCH_DATE":"2022-08-31","MEAN_MOTION_DDOT":"0.0000000000000","EPOCH":"2022-12-11T17:45:04.409568","RCS_SIZE":"LARGE","REV_AT_EPOCH":"1560","ARG_OF_PERICENTER":"51.4756","MEAN_ANOMALY":"308.6673","RA_OF_ASC_NODE":"224.5038","MEAN_MOTION_DOT":"0.00013880","NORAD_CAT_ID":"53662","PERIOD":"95.918","COUNTRY_CODE":"US","SITE":"AFWTR","TLE_LINE2":"2 53662  97.6570 224.5038 0002293  51.4756 308.6673 15.01285153 15602","EPHEMERIS_TYPE":"0","APOAPSIS":"564.526","ELEMENT_SET_NO":"999","MEAN_MOTION":"15.01285153","TLE_LINE1":"1 53662U 22105Q   22345.73963437  .00013880  00000-0  10824-2 0  9997","TIME_SYSTEM":"UTC","OBJECT_ID":"2022-105Q","INCLINATION":"97.6570","REF_FRAME":"TEME","CENTER_NAME":"EARTH","PERIAPSIS":"561.343","ECCENTRICITY":"0.00022930","OBJECT_NAME":"STARLINK-4357"},{"RA_OF_ASC_NODE":"224.4502","COUNTRY_CODE":"US","PERIOD":"95.920","NORAD_CAT_ID":"53663","MEAN_MOTION_DOT":"0.00005072","ARG_OF_PERICENTER":"74.1554","REV_AT_EPOCH":"1559","RCS_SIZE":"LARGE","MEAN_ANOMALY":"285.9882","LAUNCH_DATE":"2022-08-31","EPOCH":"2022-12-11T16:17:03.810048","MEAN_MOTION_DDOT":"0.0000000000000","BSTAR":"0.00039921000000","GP_ID":"220099350","SEMIMAJOR_AXIS":"6941.164","CLASSIFICATION_TYPE":"U","OBJECT_TYPE":"PAYLOAD","MEAN_ELEMENT_THEORY":"SGP4","FILE":"3691993","DECAY_DATE":null,"ECCENTRICITY":"0.00019180","PERIAPSIS":"561.697","OBJECT_NAME":"STARLINK-4457","REF_FRAME":"TEME","INCLINATION":"97.6576","CENTER_NAME":"EARTH","OBJECT_ID":"2022-105R","TIME_SYSTEM":"UTC","TLE_LINE1":"1 53663U 22105R   22345.67851632  .00005072  00000-0  39921-3 0  9998","TLE_LINE2":"2 53663  97.6576 224.4502 0001918  74.1554 285.9882 15.01254554 15593","SITE":"AFWTR","MEAN_MOTION":"15.01254554","APOAPSIS":"564.360","ELEMENT_SET_NO":"999","EPHEMERIS_TYPE":"0"},{"MEAN_ANOMALY":"318.9215","ARG_OF_PERICENTER":"41.2258","REV_AT_EPOCH":"1559","RCS_SIZE":"LARGE","PERIOD":"95.919","COUNTRY_CODE":"US","NORAD_CAT_ID":"53664","MEAN_MOTION_DOT":"0.00001180","RA_OF_ASC_NODE":"224.4329","MEAN_ELEMENT_THEORY":"SGP4","FILE":"3691993","DECAY_DATE":null,"SEMIMAJOR_AXIS":"6941.127","CLASSIFICATION_TYPE":"U","OBJECT_TYPE":"PAYLOAD","EPOCH":"2022-12-11T16:06:24.019776","LAUNCH_DATE":"2022-08-31","MEAN_MOTION_DDOT":"0.0000000000000","BSTAR":"0.00009647000000","GP_ID":"220100100","CENTER_NAME":"EARTH","REF_FRAME":"TEME","INCLINATION":"97.6561","OBJECT_NAME":"STARLINK-4471","PERIAPSIS":"560.701","ECCENTRICITY":"0.00033000","MEAN_MOTION":"15.01266580","ELEMENT_SET_NO":"999","APOAPSIS":"565.282","EPHEMERIS_TYPE":"0","TLE_LINE2":"2 53664  97.6561 224.4329 0003300  41.2258 318.9215 15.01266580 15597","SITE":"AFWTR","OBJECT_ID":"2022-105S","TIME_SYSTEM":"UTC","TLE_LINE1":"1 53664U 22105S   22345.67111134  .00001180  00000-0  96470-4 0  9994"},{"GP_ID":"220100352","LAUNCH_DATE":"2022-08-31","EPOCH":"2022-12-11T17:48:04.795488","MEAN_MOTION_DDOT":"0.0000000000000","BSTAR":"0.00040919000000","DECAY_DATE":null,"FILE":"3691993","MEAN_ELEMENT_THEORY":"SGP4","OBJECT_TYPE":"PAYLOAD","CLASSIFICATION_TYPE":"U","SEMIMAJOR_AXIS":"6941.155","MEAN_MOTION_DOT":"0.00005200","NORAD_CAT_ID":"53665","PERIOD":"95.920","COUNTRY_CODE":"US","RA_OF_ASC_NODE":"224.5119","MEAN_ANOMALY":"277.7217","RCS_SIZE":"LARGE","REV_AT_EPOCH":"1560","ARG_OF_PERICENTER":"82.4308","TLE_LINE1":"1 53665U 22105T   22345.74172217  .00005200  00000-0  40919-3 0  9995","TIME_SYSTEM":"UTC","OBJECT_ID":"2022-105T","EPHEMERIS_TYPE":"0","ELEMENT_SET_NO":"999","APOAPSIS":"564.861","MEAN_MOTION":"15.01257270","TLE_LINE2":"2 53665  97.6555 224.5119 0002652  82.4308 277.7217 15.01257270 15603","SITE":"AFWTR","OBJECT_NAME":"STARLINK-4334","ECCENTRICITY":"0.00026520","PERIAPSIS":"561.179","CENTER_NAME":"EARTH","INCLINATION":"97.6555","REF_FRAME":"TEME"},{"LAUNCH_DATE":"2022-08-31","MEAN_MOTION_DDOT":"0.0000000000000","BSTAR":"0.00041902000000","EPOCH":"2022-12-11T16:01:25.974336","GP_ID":"220101102","MEAN_ELEMENT_THEORY":"SGP4","DECAY_DATE":null,"FILE":"3691993","SEMIMAJOR_AXIS":"6941.124","CLASSIFICATION_TYPE":"U","OBJECT_TYPE":"PAYLOAD","PERIOD":"95.919","COUNTRY_CODE":"US","NORAD_CAT_ID":"53666","MEAN_MOTION_DOT":"0.00005328","RA_OF_ASC_NODE":"224.4182","MEAN_ANOMALY":"316.3500","ARG_OF_PERICENTER":"43.7906","REV_AT_EPOCH":"1559","RCS_SIZE":"LARGE","TIME_SYSTEM":"UTC","OBJECT_ID":"2022-105U","TLE_LINE1":"1 53666U 22105U   22345.66766174  .00005328  00000-0  41902-3 0  9992","ELEMENT_SET_NO":"999","APOAPSIS":"564.577","MEAN_MOTION":"15.01267360","EPHEMERIS_TYPE":"0","TLE_LINE2":"2 53666  97.6529 224.4182 0002287  43.7906 316.3500 15.01267360 15596","SITE":"AFWTR","OBJECT_NAME":"STARLINK-4449","ECCENTRICITY":"0.00022870","PERIAPSIS":"561.402","CENTER_NAME":"EARTH","INCLINATION":"97.6529","REF_FRAME":"TEME"}];
